{
    "links": {
        "self": "http://www.neowsapp.com/rest/v1/neo/3552155?api_key=iIulBulltgU6a56xZRHN4H3l9WmuAYTsLGpBGhQ2"
    },
    "id": "3552155",
    "neo_reference_id": "3552155",
    "name": "(2010 VB140)",
    "designation": "2010 VB140",
    "nasa_jpl_url": "http://ssd.jpl.nasa.gov/sbdb.cgi?sstr=3552155",
    "absolute_magnitude_h": 21.8,
    "estimated_diameter": {
        "kilometers": {
            "estimated_diameter_min": 0.1160259082,
            "estimated_diameter_max": 0.2594418179
        },
        "meters": {
            "estimated_diameter_min": 116.0259082094,
            "estimated_diameter_max": 259.4418179074
        },
        "miles": {
            "estimated_diameter_min": 0.0720951346,
            "estimated_diameter_max": 0.1612096218
        },
        "feet": {
            "estimated_diameter_min": 380.6624406898,
            "estimated_diameter_max": 851.1870938635
        }
    },
    "is_potentially_hazardous_asteroid": false,
    "close_approach_data": [
        {
            "close_approach_date": "2006-11-21",
            "close_approach_date_full": "2006-Nov-21 18:59",
            "epoch_date_close_approach": 1164135540000,
            "relative_velocity": {
                "kilometers_per_second": "9.4145400269",
                "kilometers_per_hour": "33892.3440966699",
                "miles_per_hour": "21059.3845860669"
            },
            "miss_distance": {
                "astronomical": "0.3293521262",
                "lunar": "128.1179770918",
                "kilometers": "49270376.559491194",
                "miles": "30615192.3487347172"
            },
            "orbiting_body": "Earth"
        },
        {
            "close_approach_date": "2010-11-14",
            "close_approach_date_full": "2010-Nov-14 00:10",
            "epoch_date_close_approach": 1289693400000,
            "relative_velocity": {
                "kilometers_per_second": "5.4382538917",
                "kilometers_per_hour": "19577.7140101799",
                "miles_per_hour": "12164.830130381"
            },
            "miss_distance": {
                "astronomical": "0.2057596797",
                "lunar": "80.0405154033",
                "kilometers": "30781209.815002239",
                "miles": "19126556.8688153382"
            },
            "orbiting_body": "Earth"
        },
        {
            "close_approach_date": "2014-11-12",
            "close_approach_date_full": "2014-Nov-12 13:51",
            "epoch_date_close_approach": 1415800260000,
            "relative_velocity": {
                "kilometers_per_second": "8.3127874856",
                "kilometers_per_hour": "29926.0349483084",
                "miles_per_hour": "18594.8743266309"
            },
            "miss_distance": {
                "astronomical": "0.4321145386",
                "lunar": "168.0925555154",
                "kilometers": "64643414.570592782",
                "miles": "40167555.2198811116"
            },
            "orbiting_body": "Earth"
        }
    ],
    "orbital_data": {
        "orbit_id": "12",
        "orbit_determination_date": "2017-04-06 08:55:41",
        "first_observation_date": "2010-11-15",
        "last_observation_date": "2011-01-25",
        "data_arc_in_days": 71,
        "observations_used": 34,
        "orbit_uncertainty": "6",
        "minimum_orbit_intersection": ".185657",
        "jupiter_tisserand_invariant": "3.245",
        "epoch_osculation": "2459000.5",
        "eccentricity": ".5349067712293402",
        "semi_major_axis": "2.496293129152855",
        "inclination": "7.427346882392319",
        "ascending_node_longitude": "81.09391442643384",
        "orbital_period": "1440.594654446915",
        "perihelion_distance": "1.161009031395715",
        "perihelion_argument": "327.2290873666974",
        "aphelion_distance": "3.831577226909995",
        "perihelion_time": "2458393.299224912117",
        "mean_anomaly": "151.7375330783533",
        "mean_motion": ".2498968039959957",
        "equinox": "J2000",
        "orbit_class": {
            "orbit_class_type": "AMO",
            "orbit_class_description": "Near-Earth asteroid orbits similar to that of 1221 Amor",
            "orbit_class_range": "1.017 AU < q (perihelion) < 1.3 AU"
        }
    },
    "is_sentry_object": false
}